[{"OBJECT_NAME":"STARLINK-30153","OBJECT_ID":"2023-113R","EPOCH":"2026-03-09T22:00:01.999584","MEAN_MOTION":15.26728127,"ECCENTRICITY":0.00015831,"INCLINATION":43.0011,"RA_OF_ASC_NODE":14.3707,"ARG_OF_PERICENTER":263.4735,"MEAN_ANOMALY":142.9693,"EPHEMERIS_TYPE":0,"CLASSIFICATION_TYPE":"U","NORAD_CAT_ID":57510,"ELEMENT_SET_NO":999,"REV_AT_EPOCH":577,"BSTAR":0.00057323158,"MEAN_MOTION_DOT":0.00015142,"MEAN_MOTION_DDOT":0},{"OBJECT_NAME":"COSMOS 546","OBJECT_ID":"1973-005A","EPOCH":"2026-03-09T21:40:39.247392","MEAN_MOTION":15.29707303,"ECCENTRICITY":0.00147738,"INCLINATION":50.6327,"RA_OF_ASC_NODE":289.914,"ARG_OF_PERICENTER":261.1516,"MEAN_ANOMALY":98.7778,"EPHEMERIS_TYPE":0,"CLASSIFICATION_TYPE":"U","NORAD_CAT_ID":6350,"ELEMENT_SET_NO":999,"REV_AT_EPOCH":92802,"BSTAR":9.142057e-5,"MEAN_MOTION_DOT":2.316e-5,"MEAN_MOTION_DDOT":0}]
